{
    "links": {
        "self": "http://www.neowsapp.com/rest/v1/neo/3389465?api_key=iIulBulltgU6a56xZRHN4H3l9WmuAYTsLGpBGhQ2"
    },
    "id": "3389465",
    "neo_reference_id": "3389465",
    "name": "(2007 UC6)",
    "designation": "2007 UC6",
    "nasa_jpl_url": "http://ssd.jpl.nasa.gov/sbdb.cgi?sstr=3389465",
    "absolute_magnitude_h": 23.1,
    "estimated_diameter": {
        "kilometers": {
            "estimated_diameter_min": 0.063760979,
            "estimated_diameter_max": 0.1425738833
        },
        "meters": {
            "estimated_diameter_min": 63.7609789875,
            "estimated_diameter_max": 142.5738833281
        },
        "miles": {
            "estimated_diameter_min": 0.0396192233,
            "estimated_diameter_max": 0.0885912765
        },
        "feet": {
            "estimated_diameter_min": 209.1895703015,
            "estimated_diameter_max": 467.7620993781
        }
    },
    "is_potentially_hazardous_asteroid": false,
    "close_approach_data": [
        {
            "close_approach_date": "2007-10-31",
            "close_approach_date_full": "2007-Oct-31 03:30",
            "epoch_date_close_approach": 1193801400000,
            "relative_velocity": {
                "kilometers_per_second": "15.0105141625",
                "kilometers_per_hour": "54037.850985158",
                "miles_per_hour": "33577.0191301944"
            },
            "miss_distance": {
                "astronomical": "0.074196391",
                "lunar": "28.862396099",
                "kilometers": "11099622.05528717",
                "miles": "6896985.327696146"
            },
            "orbiting_body": "Earth"
        }
    ],
    "orbital_data": {
        "orbit_id": "7",
        "orbit_determination_date": "2017-04-06 09:05:33",
        "first_observation_date": "2007-10-20",
        "last_observation_date": "2007-10-22",
        "data_arc_in_days": 2,
        "observations_used": 29,
        "orbit_uncertainty": "9",
        "minimum_orbit_intersection": ".0143254",
        "jupiter_tisserand_invariant": "4.157",
        "epoch_osculation": "2454394.5",
        "eccentricity": ".5983377853159362",
        "semi_major_axis": "1.590628405513247",
        "inclination": "1.753014757118764",
        "ascending_node_longitude": ".3154306443203789",
        "orbital_period": "732.7427458602092",
        "perihelion_distance": ".638895328097832",
        "perihelion_argument": "119.5348138174326",
        "aphelion_distance": "2.542361482928662",
        "perihelion_time": "2454453.875941355273",
        "mean_anomaly": "330.8283172932616",
        "mean_motion": ".4913047615058613",
        "equinox": "J2000",
        "orbit_class": {
            "orbit_class_type": "APO",
            "orbit_class_description": "Near-Earth asteroid orbits which cross the Earth’s orbit similar to that of 1862 Apollo",
            "orbit_class_range": "a (semi-major axis) > 1.0 AU; q (perihelion) < 1.017 AU"
        }
    },
    "is_sentry_object": false
}